STARLINK-4394           
1 53467U 22099C   26063.30017060  .00000439  00000+0  34644-4 0  9991
2 53467  97.6027 185.9634 0001302 210.1115 150.0038 15.05651240195237
STARLINK-4400           
1 53468U 22099D   26063.32537360  .00000365  00000+0  32981-4 0  9994
2 53468  97.6032 184.9631 0002373  78.0048 282.1442 15.01262935195179
STARLINK-4399           
1 53469U 22099E   26063.28909311  .00001007  00000+0  73997-4 0  9995
2 53469  97.6036 185.9171 0001480 191.1907 168.9287 15.05650176195230
STARLINK-4393           
1 53470U 22099F   26063.32327623  .00000108  00000+0  12938-4 0  9991
2 53470  97.6019 184.9591 0002079  93.0899 267.0564 15.01262234195175
STARLINK-4316           
1 53471U 22099G   26063.30847122  .00002288  00000+0  16271-3 0  9995
2 53471  97.6032 185.8830 0000455 237.1693 122.9490 15.05652136195238
STARLINK-4447           
1 53472U 22099H   26063.31957161  .00000636  00000+0  54068-4 0  9994
2 53472  97.6021 184.9542 0001224  99.3179 260.8184 15.01262077195171
STARLINK-4383           
1 53473U 22099J   26063.34171150  .00001294  00000+0  93866-4 0  9994
2 53473  97.6043 185.9868 0001620  80.0833 280.0577 15.05649021195242
STARLINK-4445           
1 53474U 22099K   26063.30685100  .00001102  00000+0  90297-4 0  9999
2 53474  97.6020 184.9384 0004112 201.6213 158.4838 15.01263711195176
STARLINK-4389           
1 53475U 22099L   26063.31215711  .00000557  00000+0  47917-4 0  9992
2 53475  97.6015 184.9440 0001939 219.4857 140.6227 15.01264889195878
STARLINK-4378           
1 53476U 22099M   26063.31586442  .00004721  00000+0  37178-3 0  9999
2 53476  97.6016 184.9488 0000540 183.0316 177.0905 15.01263411195175
STARLINK-4412           
1 53477U 22099N   26063.32698041  .00001740  00000+0  13997-3 0  9991
2 53477  97.6033 184.9289 0002469  60.1146 300.0324 15.01254682195872
STARLINK-4433           
1 53478U 22099P   26063.30846405  .00002966  00000+0  23534-3 0  9998
2 53478  97.6018 184.9529 0003599 215.2007 144.8980 15.01259858195172
STARLINK-4436           
1 53479U 22099Q   26063.31955782  .00000351  00000+0  28556-4 0  9995
2 53479  97.6029 185.9970 0000305 151.2991 208.8253 15.05646729195242
STARLINK-4442           
1 53480U 22099R   26063.29462833  .00001010  00000+0  74196-4 0  9998
2 53480  97.6031 185.8846 0000806  93.9766 266.1553 15.05654338195230
STARLINK-4302           
1 53481U 22099S   26063.30475286  .00000641  00000+0  54467-4 0  9995
2 53481  97.6018 184.9349 0005004 209.9002 150.1937 15.01263067195173
STARLINK-4360           
1 53482U 22099T   26063.29364707  .00001183  00000+0  96605-4 0  9991
2 53482  97.6048 184.9541 0000602 124.0331 236.0951 15.01264172195170
