[{"OBJECT_NAME":"STARLINK-4394","OBJECT_ID":"2022-099C","EPOCH":"2026-03-04T07:12:14.739840","MEAN_MOTION":15.0565124,"ECCENTRICITY":0.00013021,"INCLINATION":97.6027,"RA_OF_ASC_NODE":185.9634,"ARG_OF_PERICENTER":210.1115,"MEAN_ANOMALY":150.0038,"EPHEMERIS_TYPE":0,"CLASSIFICATION_TYPE":"U","NORAD_CAT_ID":53467,"ELEMENT_SET_NO":999,"REV_AT_EPOCH":19523,"BSTAR":3.4643954e-5,"MEAN_MOTION_DOT":4.39e-6,"MEAN_MOTION_DDOT":0},{"OBJECT_NAME":"STARLINK-4400","OBJECT_ID":"2022-099D","EPOCH":"2026-03-04T07:48:32.279040","MEAN_MOTION":15.01262935,"ECCENTRICITY":0.00023738,"INCLINATION":97.6032,"RA_OF_ASC_NODE":184.9631,"ARG_OF_PERICENTER":78.0048,"MEAN_ANOMALY":282.1442,"EPHEMERIS_TYPE":0,"CLASSIFICATION_TYPE":"U","NORAD_CAT_ID":53468,"ELEMENT_SET_NO":999,"REV_AT_EPOCH":19517,"BSTAR":3.2980643e-5,"MEAN_MOTION_DOT":3.65e-6,"MEAN_MOTION_DDOT":0},{"OBJECT_NAME":"STARLINK-4399","OBJECT_ID":"2022-099E","EPOCH":"2026-03-04T06:56:17.644704","MEAN_MOTION":15.05650176,"ECCENTRICITY":0.00014801,"INCLINATION":97.6036,"RA_OF_ASC_NODE":185.9171,"ARG_OF_PERICENTER":191.1907,"MEAN_ANOMALY":168.9287,"EPHEMERIS_TYPE":0,"CLASSIFICATION_TYPE":"U","NORAD_CAT_ID":53469,"ELEMENT_SET_NO":999,"REV_AT_EPOCH":19523,"BSTAR":7.3996981e-5,"MEAN_MOTION_DOT":1.007e-5,"MEAN_MOTION_DDOT":0},{"OBJECT_NAME":"STARLINK-4393","OBJECT_ID":"2022-099F","EPOCH":"2026-03-04T07:45:31.066272","MEAN_MOTION":15.01262234,"ECCENTRICITY":0.00020793,"INCLINATION":97.6019,"RA_OF_ASC_NODE":184.9591,"ARG_OF_PERICENTER":93.0899,"MEAN_ANOMALY":267.0564,"EPHEMERIS_TYPE":0,"CLASSIFICATION_TYPE":"U","NORAD_CAT_ID":53470,"ELEMENT_SET_NO":999,"REV_AT_EPOCH":19517,"BSTAR":1.2937844e-5,"MEAN_MOTION_DOT":1.08e-6,"MEAN_MOTION_DDOT":0},{"OBJECT_NAME":"STARLINK-4316","OBJECT_ID":"2022-099G","EPOCH":"2026-03-04T07:24:11.913408","MEAN_MOTION":15.05652136,"ECCENTRICITY":4.553e-5,"INCLINATION":97.6032,"RA_OF_ASC_NODE":185.883,"ARG_OF_PERICENTER":237.1693,"MEAN_ANOMALY":122.949,"EPHEMERIS_TYPE":0,"CLASSIFICATION_TYPE":"U","NORAD_CAT_ID":53471,"ELEMENT_SET_NO":999,"REV_AT_EPOCH":19523,"BSTAR":0.00016271138,"MEAN_MOTION_DOT":2.288e-5,"MEAN_MOTION_DDOT":0},{"OBJECT_NAME":"STARLINK-4447","OBJECT_ID":"2022-099H","EPOCH":"2026-03-04T07:40:10.987104","MEAN_MOTION":15.01262077,"ECCENTRICITY":0.00012246,"INCLINATION":97.6021,"RA_OF_ASC_NODE":184.9542,"ARG_OF_PERICENTER":99.3179,"MEAN_ANOMALY":260.8184,"EPHEMERIS_TYPE":0,"CLASSIFICATION_TYPE":"U","NORAD_CAT_ID":53472,"ELEMENT_SET_NO":999,"REV_AT_EPOCH":19517,"BSTAR":5.4068238e-5,"MEAN_MOTION_DOT":6.36e-6,"MEAN_MOTION_DDOT":0},{"OBJECT_NAME":"STARLINK-4383","OBJECT_ID":"2022-099J","EPOCH":"2026-03-04T08:12:03.873600","MEAN_MOTION":15.05649021,"ECCENTRICITY":0.00016208,"INCLINATION":97.6043,"RA_OF_ASC_NODE":185.9868,"ARG_OF_PERICENTER":80.0833,"MEAN_ANOMALY":280.0577,"EPHEMERIS_TYPE":0,"CLASSIFICATION_TYPE":"U","NORAD_CAT_ID":53473,"ELEMENT_SET_NO":999,"REV_AT_EPOCH":19524,"BSTAR":9.3866182e-5,"MEAN_MOTION_DOT":1.294e-5,"MEAN_MOTION_DDOT":0},{"OBJECT_NAME":"STARLINK-4445","OBJECT_ID":"2022-099K","EPOCH":"2026-03-04T07:21:51.926400","MEAN_MOTION":15.01263711,"ECCENTRICITY":0.00041126,"INCLINATION":97.602,"RA_OF_ASC_NODE":184.9384,"ARG_OF_PERICENTER":201.6213,"MEAN_ANOMALY":158.4838,"EPHEMERIS_TYPE":0,"CLASSIFICATION_TYPE":"U","NORAD_CAT_ID":53474,"ELEMENT_SET_NO":999,"REV_AT_EPOCH":19517,"BSTAR":9.0297459e-5,"MEAN_MOTION_DOT":1.102e-5,"MEAN_MOTION_DDOT":0},{"OBJECT_NAME":"STARLINK-4389","OBJECT_ID":"2022-099L","EPOCH":"2026-03-04T07:29:30.374304","MEAN_MOTION":15.01264889,"ECCENTRICITY":0.0001939,"INCLINATION":97.6015,"RA_OF_ASC_NODE":184.944,"ARG_OF_PERICENTER":219.4857,"MEAN_ANOMALY":140.6227,"EPHEMERIS_TYPE":0,"CLASSIFICATION_TYPE":"U","NORAD_CAT_ID":53475,"ELEMENT_SET_NO":999,"REV_AT_EPOCH":19587,"BSTAR":4.7917204e-5,"MEAN_MOTION_DOT":5.57e-6,"MEAN_MOTION_DDOT":0},{"OBJECT_NAME":"STARLINK-4378","OBJECT_ID":"2022-099M","EPOCH":"2026-03-04T07:34:50.685888","MEAN_MOTION":15.01263411,"ECCENTRICITY":5.403e-5,"INCLINATION":97.6016,"RA_OF_ASC_NODE":184.9488,"ARG_OF_PERICENTER":183.0316,"MEAN_ANOMALY":177.0905,"EPHEMERIS_TYPE":0,"CLASSIFICATION_TYPE":"U","NORAD_CAT_ID":53476,"ELEMENT_SET_NO":999,"REV_AT_EPOCH":19517,"BSTAR":0.00037178428,"MEAN_MOTION_DOT":4.721e-5,"MEAN_MOTION_DDOT":0},{"OBJECT_NAME":"STARLINK-4412","OBJECT_ID":"2022-099N","EPOCH":"2026-03-04T07:50:51.107424","MEAN_MOTION":15.01254682,"ECCENTRICITY":0.00024699,"INCLINATION":97.6033,"RA_OF_ASC_NODE":184.9289,"ARG_OF_PERICENTER":60.1146,"MEAN_ANOMALY":300.0324,"EPHEMERIS_TYPE":0,"CLASSIFICATION_TYPE":"U","NORAD_CAT_ID":53477,"ELEMENT_SET_NO":999,"REV_AT_EPOCH":19587,"BSTAR":0.00013996819,"MEAN_MOTION_DOT":1.74e-5,"MEAN_MOTION_DDOT":0},{"OBJECT_NAME":"STARLINK-4433","OBJECT_ID":"2022-099P","EPOCH":"2026-03-04T07:24:11.293920","MEAN_MOTION":15.01259858,"ECCENTRICITY":0.00035993,"INCLINATION":97.6018,"RA_OF_ASC_NODE":184.9529,"ARG_OF_PERICENTER":215.2007,"MEAN_ANOMALY":144.898,"EPHEMERIS_TYPE":0,"CLASSIFICATION_TYPE":"U","NORAD_CAT_ID":53478,"ELEMENT_SET_NO":999,"REV_AT_EPOCH":19517,"BSTAR":0.00023534061,"MEAN_MOTION_DOT":2.966e-5,"MEAN_MOTION_DDOT":0},{"OBJECT_NAME":"STARLINK-4436","OBJECT_ID":"2022-099Q","EPOCH":"2026-03-04T07:40:09.795648","MEAN_MOTION":15.05646729,"ECCENTRICITY":3.051e-5,"INCLINATION":97.6029,"RA_OF_ASC_NODE":185.997,"ARG_OF_PERICENTER":151.2991,"MEAN_ANOMALY":208.8253,"EPHEMERIS_TYPE":0,"CLASSIFICATION_TYPE":"U","NORAD_CAT_ID":53479,"ELEMENT_SET_NO":999,"REV_AT_EPOCH":19524,"BSTAR":2.855564e-5,"MEAN_MOTION_DOT":3.51e-6,"MEAN_MOTION_DDOT":0},{"OBJECT_NAME":"STARLINK-4442","OBJECT_ID":"2022-099R","EPOCH":"2026-03-04T07:04:15.887712","MEAN_MOTION":15.05654338,"ECCENTRICITY":8.066e-5,"INCLINATION":97.6031,"RA_OF_ASC_NODE":185.8846,"ARG_OF_PERICENTER":93.9766,"MEAN_ANOMALY":266.1553,"EPHEMERIS_TYPE":0,"CLASSIFICATION_TYPE":"U","NORAD_CAT_ID":53480,"ELEMENT_SET_NO":999,"REV_AT_EPOCH":19523,"BSTAR":7.4195786e-5,"MEAN_MOTION_DOT":1.01e-5,"MEAN_MOTION_DDOT":0},{"OBJECT_NAME":"STARLINK-4302","OBJECT_ID":"2022-099S","EPOCH":"2026-03-04T07:18:50.647104","MEAN_MOTION":15.01263067,"ECCENTRICITY":0.00050045,"INCLINATION":97.6018,"RA_OF_ASC_NODE":184.9349,"ARG_OF_PERICENTER":209.9002,"MEAN_ANOMALY":150.1937,"EPHEMERIS_TYPE":0,"CLASSIFICATION_TYPE":"U","NORAD_CAT_ID":53481,"ELEMENT_SET_NO":999,"REV_AT_EPOCH":19517,"BSTAR":5.4466932e-5,"MEAN_MOTION_DOT":6.41e-6,"MEAN_MOTION_DDOT":0},{"OBJECT_NAME":"STARLINK-4360","OBJECT_ID":"2022-099T","EPOCH":"2026-03-04T07:02:51.106848","MEAN_MOTION":15.01264172,"ECCENTRICITY":6.025e-5,"INCLINATION":97.6048,"RA_OF_ASC_NODE":184.9541,"ARG_OF_PERICENTER":124.0331,"MEAN_ANOMALY":236.0951,"EPHEMERIS_TYPE":0,"CLASSIFICATION_TYPE":"U","NORAD_CAT_ID":53482,"ELEMENT_SET_NO":999,"REV_AT_EPOCH":19517,"BSTAR":9.6604616e-5,"MEAN_MOTION_DOT":1.183e-5,"MEAN_MOTION_DDOT":0}]
